[
    {
        "Altitude(m)": 554884.3568880559,
        "Argument of Periapsis(deg)": 0.006622991110713501,
        "Eccentricity": 0.0,
        "Inclination(deg)": 53.0,
        "Latitude(deg)": 28.940865533522167,
        "Longitude(deg)": -30.2548807938455,
        "Mean Anomaly(deg)": -217.1811071324224,
        "RAAN(deg)": 274.990143368528,
        "Satellite Name": "Starlink Shell 1 1218",
        "Satellite Number": 1218,
        "Semi-Major Axis(m)": 6931778.249405717,
        "Time(s)": 190
    },
    {
        "Altitude(m)": 554814.421982611,
        "Argument of Periapsis(deg)": 0.0069715695902247375,
        "Eccentricity": 0.0,
        "Inclination(deg)": 53.0,
        "Latitude(deg)": 28.482224042364688,
        "Longitude(deg)": -29.80713399251302,
        "Mean Anomaly(deg)": -216.55427592886565,
        "RAAN(deg)": 274.9896245984506,
        "Satellite Name": "Starlink Shell 1 1218",
        "Satellite Number": 1218,
        "Semi-Major Axis(m)": 6931778.249405717,
        "Time(s)": 200
    },
    {
        "Altitude(m)": 554745.7248205144,
        "Argument of Periapsis(deg)": 0.007320148069735974,
        "Eccentricity": 0.0,
        "Inclination(deg)": 53.0,
        "Latitude(deg)": 28.02180826056818,
        "Longitude(deg)": -29.363599077903878,
        "Mean Anomaly(deg)": -215.92744472530896,
        "RAAN(deg)": 274.98910582837306,
        "Satellite Name": "Starlink Shell 1 1218",
        "Satellite Number": 1218,
        "Semi-Major Axis(m)": 6931778.249405717,
        "Time(s)": 210
    },
    {
        "Altitude(m)": 554678.3175884938,
        "Argument of Periapsis(deg)": 0.007668726549247212,
        "Eccentricity": 0.0,
        "Inclination(deg)": 53.0,
        "Latitude(deg)": 27.559666093300866,
        "Longitude(deg)": -28.924176001333485,
        "Mean Anomaly(deg)": -215.3006135217523,
        "RAAN(deg)": 274.98858705829554,
        "Satellite Name": "Starlink Shell 1 1218",
        "Satellite Number": 1218,
        "Semi-Major Axis(m)": 6931778.249405717,
        "Time(s)": 220
    },
    {
        "Altitude(m)": 554612.2520118522,
        "Argument of Periapsis(deg)": 0.00801730502875845,
        "Eccentricity": 0.0,
        "Inclination(deg)": 53.0,
        "Latitude(deg)": 27.09584441120282,
        "Longitude(deg)": -28.488766037384288,
        "Mean Anomaly(deg)": -214.67378231819555,
        "RAAN(deg)": 274.98806828821813,
        "Satellite Name": "Starlink Shell 1 1218",
        "Satellite Number": 1218,
        "Semi-Major Axis(m)": 6931778.249405717,
        "Time(s)": 230
    },
    {
        "Altitude(m)": 554547.5793269034,
        "Argument of Periapsis(deg)": 0.008365883508269684,
        "Eccentricity": 0.0,
        "Inclination(deg)": 53.0,
        "Latitude(deg)": 26.630389080105623,
        "Longitude(deg)": -28.057271277956414,
        "Mean Anomaly(deg)": -214.04695111463883,
        "RAAN(deg)": 274.98754951814067,
        "Satellite Name": "Starlink Shell 1 1218",
        "Satellite Number": 1218,
        "Semi-Major Axis(m)": 6931778.249405717,
        "Time(s)": 240
    },
    {
        "Altitude(m)": 554484.3502536147,
        "Argument of Periapsis(deg)": 0.008714461987780921,
        "Eccentricity": 0.0,
        "Inclination(deg)": 53.0,
        "Latitude(deg)": 26.163344990265127,
        "Longitude(deg)": -27.629595636528062,
        "Mean Anomaly(deg)": -213.42011991108214,
        "RAAN(deg)": 274.98703074806315,
        "Satellite Name": "Starlink Shell 1 1218",
        "Satellite Number": 1218,
        "Semi-Major Axis(m)": 6931778.249405717,
        "Time(s)": 250
    },
    {
        "Altitude(m)": 554422.6149685154,
        "Argument of Periapsis(deg)": 0.009063040467292158,
        "Eccentricity": 0.0,
        "Inclination(deg)": 53.0,
        "Latitude(deg)": 25.694756085096838,
        "Longitude(deg)": -27.205644337102445,
        "Mean Anomaly(deg)": -212.79328870752542,
        "RAAN(deg)": 274.98651197798574,
        "Satellite Name": "Starlink Shell 1 1218",
        "Satellite Number": 1218,
        "Semi-Major Axis(m)": 6931778.249405717,
        "Time(s)": 260
    },
    {
        "Altitude(m)": 554362.4230777482,
        "Argument of Periapsis(deg)": 0.009411618946803396,
        "Eccentricity": 0.0,
        "Inclination(deg)": 53.0,
        "Latitude(deg)": 25.224665389401896,
        "Longitude(deg)": -26.785323400922625,
        "Mean Anomaly(deg)": -212.16645750396873,
        "RAAN(deg)": 274.9859932079082,
        "Satellite Name": "Starlink Shell 1 1218",
        "Satellite Number": 1218,
        "Semi-Major Axis(m)": 6931778.249405717,
        "Time(s)": 270
    },
    {
        "Altitude(m)": 554303.8235904381,
        "Argument of Periapsis(deg)": 0.009760197426314633,
        "Eccentricity": 0.0,
        "Inclination(deg)": 53.0,
        "Latitude(deg)": 24.753115037070657,
        "Longitude(deg)": -26.368540644017607,
        "Mean Anomaly(deg)": -211.53962630041195,
        "RAAN(deg)": 274.98547443783076,
        "Satellite Name": "Starlink Shell 1 1218",
        "Satellite Number": 1218,
        "Semi-Major Axis(m)": 6931778.249405717,
        "Time(s)": 280
    },
    {
        "Altitude(m)": 554246.8648922805,
        "Argument of Periapsis(deg)": 0.01010877590582587,
        "Eccentricity": 0.0,
        "Inclination(deg)": 53.0,
        "Latitude(deg)": 24.280146298264405,
        "Longitude(deg)": -25.9552051600192,
        "Mean Anomaly(deg)": -210.91279509685523,
        "RAAN(deg)": 274.9849556677533,
        "Satellite Name": "Starlink Shell 1 1218",
        "Satellite Number": 1218,
        "Semi-Major Axis(m)": 6931778.249405717,
        "Time(s)": 290
    },
    {
        "Altitude(m)": 554191.5947194058,
        "Argument of Periapsis(deg)": 0.010457354385337106,
        "Eccentricity": 0.0,
        "Inclination(deg)": 53.0,
        "Latitude(deg)": 23.80579960606709,
        "Longitude(deg)": -25.545226801288123,
        "Mean Anomaly(deg)": -210.28596389329857,
        "RAAN(deg)": 274.9844368976758,
        "Satellite Name": "Starlink Shell 1 1218",
        "Satellite Number": 1218,
        "Semi-Major Axis(m)": 6931778.249405717,
        "Time(s)": 300
    },
    {
        "Altitude(m)": 554138.0601325474,
        "Argument of Periapsis(deg)": 0.010805932864848343,
        "Eccentricity": 0.0,
        "Inclination(deg)": 53.0,
        "Latitude(deg)": 23.330114582603503,
        "Longitude(deg)": -25.138517171379544,
        "Mean Anomaly(deg)": -209.65913268974177,
        "RAAN(deg)": 274.9839181275983,
        "Satellite Name": "Starlink Shell 1 1218",
        "Satellite Number": 1218,
        "Semi-Major Axis(m)": 6931778.249405717,
        "Time(s)": 310
    },
    {
        "Altitude(m)": 554086.3074914785,
        "Argument of Periapsis(deg)": 0.01115451134435958,
        "Eccentricity": 0.0,
        "Inclination(deg)": 53.0,
        "Latitude(deg)": 22.85313006462927,
        "Longitude(deg)": -24.73498910325047,
        "Mean Anomaly(deg)": -209.03230148618516,
        "RAAN(deg)": 274.9833993575209,
        "Satellite Name": "Starlink Shell 1 1218",
        "Satellite Number": 1218,
        "Semi-Major Axis(m)": 6931778.249405717,
        "Time(s)": 320
    },
    {
        "Altitude(m)": 554036.3824297829,
        "Argument of Periapsis(deg)": 0.011503089823870818,
        "Eccentricity": 0.0,
        "Inclination(deg)": 53.0,
        "Latitude(deg)": 22.374884128589052,
        "Longitude(deg)": -24.33455613621438,
        "Mean Anomaly(deg)": -208.40547028262839,
        "RAAN(deg)": 274.9828805874434,
        "Satellite Name": "Starlink Shell 1 1218",
        "Satellite Number": 1218,
        "Semi-Major Axis(m)": 6931778.249405717,
        "Time(s)": 330
    },
    {
        "Altitude(m)": 553988.3298299549,
        "Argument of Periapsis(deg)": 0.011851668303382053,
        "Eccentricity": 0.0,
        "Inclination(deg)": 53.0,
        "Latitude(deg)": 21.89541411514719,
        "Longitude(deg)": -23.937133504643594,
        "Mean Anomaly(deg)": -207.7786390790717,
        "RAAN(deg)": 274.98236181736587,
        "Satellite Name": "Starlink Shell 1 1218",
        "Satellite Number": 1218,
        "Semi-Major Axis(m)": 6931778.249405717,
        "Time(s)": 340
    },
    {
        "Altitude(m)": 553942.1937988162,
        "Argument of Periapsis(deg)": 0.012200246782893292,
        "Eccentricity": 0.0,
        "Inclination(deg)": 53.0,
        "Latitude(deg)": 21.414756653195873,
        "Longitude(deg)": -23.54263761278915,
        "Mean Anomaly(deg)": -207.15180787551498,
        "RAAN(deg)": 274.98184304728846,
        "Satellite Name": "Starlink Shell 1 1218",
        "Satellite Number": 1218,
        "Semi-Major Axis(m)": 6931778.249405717,
        "Time(s)": 350
    },
    {
        "Altitude(m)": 553898.0176433082,
        "Argument of Periapsis(deg)": 0.012548825262404526,
        "Eccentricity": 0.0,
        "Inclination(deg)": 53.0,
        "Latitude(deg)": 20.932947683346885,
        "Longitude(deg)": -23.150985508699243,
        "Mean Anomaly(deg)": -206.52497667195817,
        "RAAN(deg)": 274.981324277211,
        "Satellite Name": "Starlink Shell 1 1218",
        "Satellite Number": 1218,
        "Semi-Major Axis(m)": 6931778.249405717,
        "Time(s)": 360
    },
    {
        "Altitude(m)": 553855.8438466381,
        "Argument of Periapsis(deg)": 0.012897403741915765,
        "Eccentricity": 0.0,
        "Inclination(deg)": 53.0,
        "Latitude(deg)": 20.45002248090924,
        "Longitude(deg)": -22.762095870207617,
        "Mean Anomaly(deg)": -205.89814546840157,
        "RAAN(deg)": 274.9808055071335,
        "Satellite Name": "Starlink Shell 1 1218",
        "Satellite Number": 1218,
        "Semi-Major Axis(m)": 6931778.249405717,
        "Time(s)": 370
    }
]